NORAD_CAT_ID,OBJECT_NAME,OBJECT_TYPE,EPOCH,MEAN_MOTION,ECCENTRICITY,INCLINATION,RA_OF_ASC_NODE,ARG_OF_PERICENTER,MEAN_ANOMALY,BSTAR,MEAN_MOTION_DOT,MEAN_MOTION_DDOT,TLE_LINE0,TLE_LINE1,TLE_LINE2,SEMIMAJOR_AXIS,PERIOD,APOGEE,PERIGEE,DECAYED
54101.0,STARLINK-5204,PAYLOAD,2024-02-15 20:12:28,15.08840141,0.0001454,53.2177,98.5478,91.4153,268.7005,0.00011523,1.546e-05,0.0,0 STARLINK-5204,1 54101U 22136BC  24046.84199945  .00001546  00000-0  11523-3 0  9991,2 54101  53.2177  98.5478 0001454  91.4153 268.7005 15.08840141 73545,6917.88,95.438,540.751,538.739,0.0
54101.0,STARLINK-5204,PAYLOAD,2024-02-16 04:09:24,15.08839538,0.0001527,53.2179,97.0609,96.5085,263.6081,-7.7762e-06,-4.12e-06,0.0,0 STARLINK-5204,1 54101U 22136BC  24047.17319933 -.00000412  00000-0 -77762-5 0  9991,2 54101  53.2179  97.0609 0001527  96.5085 263.6081 15.08839538 74062,6917.882,95.438,540.803,538.69,0.0
54101.0,STARLINK-5204,PAYLOAD,2024-02-16 10:30:56,15.08848361,0.0001554,53.2173,95.8719,98.0343,262.0825,0.00035172,5.315e-05,0.0,0 STARLINK-5204,1 54101U 22136BC  24047.43815781  .00005315  00000-0  35172-3 0  9994,2 54101  53.2173  95.8719 0001554  98.0343 262.0825 15.08848361 73633,6917.855,95.437,540.795,538.645,0.0
54101.0,STARLINK-5204,PAYLOAD,2024-02-17 02:24:48,15.08837997,0.0001875,53.2166,92.8994,70.366,289.7535,0.000121,1.638e-05,0.0,0 STARLINK-5204,1 54101U 22136BC  24048.10056395  .00001638  00000-0  12100-3 0  9997,2 54101  53.2166  92.8994 0001875  70.3660 289.7535 15.08837997 74209,6917.887,95.438,541.049,538.454,0.0
54101.0,STARLINK-5204,PAYLOAD,2024-02-17 10:21:44,15.08834566,0.00015,53.2163,91.4091,93.0706,267.0458,5.7844e-05,6.33e-06,0.0,0 STARLINK-5204,1 54101U 22136BC  24048.43176608  .00000633  00000-0  57844-4 0  9992,2 54101  53.2163  91.4091 0001500  93.0706 267.0458 15.08834566 73781,6917.897,95.438,540.8,538.724,0.0
54101.0,STARLINK-5204,PAYLOAD,2024-02-17 19:54:03,15.08838951,0.0001483,53.2166,89.6249,83.2164,276.8997,0.00010241,1.342e-05,0.0,0 STARLINK-5204,1 54101U 22136BC  24048.82920667  .00001342  00000-0  10241-3 0  9994,2 54101  53.2166  89.6249 0001483  83.2164 276.8997 15.08838951 73842,6917.884,95.438,540.775,538.723,0.0
54101.0,STARLINK-5204,PAYLOAD,2024-02-18 10:12:31,15.08853612,0.0001627,53.2162,86.9494,81.892,278.2257,0.00037811,5.737e-05,0.0,0 STARLINK-5204,1 54101U 22136BC  24049.42536204  .00005737  00000-0  37811-3 0  9995,2 54101  53.2162  86.9494 0001627  81.8920 278.2257 15.08853612 74403,6917.839,95.437,540.829,538.578,0.0
54101.0,STARLINK-5204,PAYLOAD,2024-02-18 19:44:50,15.08847515,0.0001721,53.2177,85.1665,78.4556,281.6629,0.00028327,4.224e-05,0.0,0 STARLINK-5204,1 54101U 22136BC  24049.82280400  .00004224  00000-0  28327-3 0  9995,2 54101  53.2177  85.1665 0001721  78.4556 281.6629 15.08847515 74464,6917.857,95.437,540.913,538.532,0.0
54101.0,STARLINK-5204,PAYLOAD,2024-02-19 08:27:55,15.08842121,0.0001575,53.2158,82.7857,88.9351,271.1821,0.00015649,2.204e-05,0.0,0 STARLINK-5204,1 54101U 22136BC  24050.35272613  .00002204  00000-0  15649-3 0  9991,2 54101  53.2158  82.7857 0001575  88.9351 271.1821 15.08842121 74540,6917.874,95.437,540.828,538.649,0.0
54101.0,STARLINK-5204,PAYLOAD,2024-02-19 19:35:37,15.08840472,0.0001599,53.2164,80.7045,90.1615,269.9561,7.0945e-05,8.41e-06,0.0,0 STARLINK-5204,1 54101U 22136BC  24050.81640628  .00000841  00000-0  70945-4 0  9993,2 54101  53.2164  80.7045 0001599  90.1615 269.9561 15.08840472 74147,6917.879,95.438,540.85,538.638,0.0
54101.0,STARLINK-5204,PAYLOAD,2024-02-20 11:29:28,15.08843758,0.0001587,53.2173,77.7298,96.2476,263.8697,7.818e-05,9.57e-06,0.0,0 STARLINK-5204,1 54101U 22136BC  24051.47880495  .00000957  00000-0  78180-4 0  9991,2 54101  53.2173  77.7298 0001587  96.2476 263.8697 15.08843758 74718,6917.869,95.437,540.832,538.636,0.0
54101.0,STARLINK-5204,PAYLOAD,2024-02-21 06:34:07,15.08824883,0.0001579,53.2176,74.1605,102.0525,258.0644,0.00028074,4.181e-05,0.0,0 STARLINK-5204,1 54101U 22136BC  24052.27369445  .00004181  00000-0  28074-3 0  9996,2 54101  53.2176  74.1605 0001579 102.0525 258.0644 15.08824883 74835,6917.927,95.439,540.884,538.699,0.0
54101.0,STARLINK-5204,PAYLOAD,2024-02-22 01:38:44,15.08837352,0.000167,53.2175,70.5905,103.9721,256.1457,8.3521e-05,1.041e-05,0.0,0 STARLINK-5204,1 54101U 22136BC  24053.06856944  .00001041  00000-0  83521-4 0  9990,2 54101  53.2175  70.5905 0001670 103.9721 256.1457 15.08837352 74956,6917.888,95.438,540.909,538.598,0.0
54101.0,STARLINK-5204,PAYLOAD,2024-02-22 08:00:16,15.08838123,0.0001482,53.2176,69.4054,91.5465,268.5697,0.00011979,1.619e-05,0.0,0 STARLINK-5204,1 54101U 22136BC  24053.33352944  .00001619  00000-0  11979-3 0  9999,2 54101  53.2176  69.4054 0001482  91.5465 268.5697 15.08838123 74520,6917.886,95.438,540.776,538.726,0.0
54101.0,STARLINK-5204,PAYLOAD,2024-02-22 17:32:35,15.08839983,0.0001454,53.2172,67.621,93.9147,266.2012,4.7363e-05,4.66e-06,0.0,0 STARLINK-5204,1 54101U 22136BC  24053.73097009  .00000466  00000-0  47363-4 0  9997,2 54101  53.2172  67.6210 0001454  93.9147 266.2012 15.08839983 74589,6917.88,95.438,540.751,538.74,0.0
54101.0,STARLINK-5204,PAYLOAD,2024-02-23 07:51:03,15.08840675,0.0001483,53.2175,64.9452,96.9338,263.1822,9.0466e-05,1.152e-05,0.0,0 STARLINK-5204,1 54101U 22136BC  24054.32712956  .00001152  00000-0  90466-4 0  9993,2 54101  53.2175  64.9452 0001483  96.9338 263.1822 15.08840675 75145,6917.878,95.438,540.769,538.717,0.0
54101.0,STARLINK-5204,PAYLOAD,2024-02-23 17:23:22,15.08841229,0.0001447,53.2174,63.1608,95.2721,264.8436,9.7998e-05,1.272e-05,0.0,0 STARLINK-5204,1 54101U 22136BC  24054.72456953  .00001272  00000-0  97998-4 0  9999,2 54101  53.2174  63.1608 0001447  95.2721 264.8436 15.08841229 74735,6917.877,95.437,540.743,538.741,0.0
54101.0,STARLINK-5204,PAYLOAD,2024-02-24 04:31:05,15.08830965,0.0001581,53.2187,61.0803,97.7416,262.3756,-9.7162e-06,-4.43e-06,0.0,0 STARLINK-5204,1 54101U 22136BC  24055.18826024 -.00000443  00000-0 -97162-5 0  9995,2 54101  53.2187  61.0803 0001581  97.7416 262.3756 15.08830965 75273,6917.908,95.438,540.867,538.679,0.0
54101.0,STARLINK-5204,PAYLOAD,2024-02-24 09:17:14,15.08836295,0.0001771,53.22,60.1886,101.6732,258.4459,2.1449e-06,-2.54e-06,0.0,0 STARLINK-5204,1 54101U 22136BC  24055.38697754 -.00000254  00000-0  21449-5 0  9997,2 54101  53.2200  60.1886 0001771 101.6732 258.4459 15.08836295 74836,6917.892,95.438,540.982,538.532,0.0
54101.0,STARLINK-5204,PAYLOAD,2024-02-25 05:57:15,15.08830872,0.0001803,53.2198,56.3231,101.7099,258.4096,0.00023919,3.52e-05,0.0,0 STARLINK-5204,1 54101U 22136BC  24056.24809515  .00003520  00000-0  23919-3 0  9993,2 54101  53.2198  56.3231 0001803 101.7099 258.4096 15.08830872 75435,6917.908,95.438,541.021,538.526,0.0
54101.0,STARLINK-5204,PAYLOAD,2024-02-25 09:08:01,15.08840999,0.000187,53.2202,55.7226,91.7776,268.3431,0.00010254,1.344e-05,0.0,0 STARLINK-5204,1 54101U 22136BC  24056.38057380  .00001344  00000-0  10254-3 0  9993,2 54101  53.2202  55.7226 0001870  91.7776 268.3431 15.08840999 74985,6917.877,95.437,541.036,538.449,0.0
54101.0,STARLINK-5204,PAYLOAD,2024-02-25 17:04:57,15.08835486,0.0001922,53.2202,54.2368,89.1603,270.9609,0.00017508,2.499e-05,0.0,0 STARLINK-5204,1 54101U 22136BC  24056.71177673  .00002499  00000-0  17508-3 0  9999,2 54101  53.2202  54.2368 0001922  89.1603 270.9609 15.08835486 75032,6917.894,95.438,541.089,538.43,0.0
54101.0,STARLINK-5204,PAYLOAD,2024-02-26 05:48:02,15.08844871,0.0001687,53.2186,51.8588,83.6162,276.5023,0.00013026,1.786e-05,0.0,0 STARLINK-5204,1 54101U 22136BC  24057.24169137  .00001786  00000-0  13026-3 0  9993,2 54101  53.2186  51.8588 0001687  83.6162 276.5023 15.08844871 75587,6917.866,95.437,540.898,538.563,0.0
54101.0,STARLINK-5204,PAYLOAD,2024-02-27 04:03:26,15.08842515,0.0001687,53.218,47.698,79.1295,280.9887,3.1759e-05,2.17e-06,0.0,0 STARLINK-5204,1 54101U 22136BC  24058.16905529  .00000217  00000-0  31759-4 0  9990,2 54101  53.2180  47.6980 0001687  79.1295 280.9887 15.08842515 75723,6917.873,95.437,540.905,538.571,0.0
54101.0,STARLINK-5204,PAYLOAD,2024-02-27 08:49:35,15.08846105,0.0001659,53.218,46.8042,82.3343,277.7838,5.8758e-05,6.47e-06,0.0,0 STARLINK-5204,1 54101U 22136BC  24058.36777105  .00000647  00000-0  58758-4 0  9994,2 54101  53.2180  46.8042 0001659  82.3343 277.7838 15.08846105 75282,6917.862,95.437,540.874,538.579,0.0
54101.0,STARLINK-5204,PAYLOAD,2024-02-27 23:08:04,15.08836234,0.0001648,53.2188,44.1234,106.1317,253.9857,-3.4085e-05,-8.3e-06,0.0,0 STARLINK-5204,1 54101U 22136BC  24058.96393869 -.00000830  00000-0 -34085-4 0  9994,2 54101  53.2188  44.1234 0001648 106.1317 253.9857 15.08836234 75377,6917.892,95.438,540.897,538.617,0.0
54101.0,STARLINK-5204,PAYLOAD,2024-02-28 05:29:36,15.0883936,0.0001542,53.2177,42.939,101.6487,258.4678,3.7144e-05,3.03e-06,0.0,0 STARLINK-5204,1 54101U 22136BC  24059.22889484  .00000303  00000-0  37144-4 0  9999,2 54101  53.2177  42.9390 0001542 101.6487 258.4678 15.08839360 75885,6917.882,95.438,540.814,538.681,0.0
54101.0,STARLINK-5204,PAYLOAD,2024-02-28 22:58:51,15.08835253,0.0001403,53.2176,39.6679,101.8432,258.2717,2.679e-05,1.38e-06,0.0,0 STARLINK-5204,1 54101U 22136BC  24059.95753881  .00000138  00000-0  26790-4 0  9991,2 54101  53.2176  39.6679 0001403 101.8432 258.2717 15.08835253 75525,6917.895,95.438,540.73,538.789,0.0
54101.0,STARLINK-5204,PAYLOAD,2024-02-29 08:31:09,15.08841255,0.0001495,53.2184,37.8818,108.214,251.9015,5.5266e-05,5.92e-06,0.0,0 STARLINK-5204,1 54101U 22136BC  24060.35497512  .00000592  00000-0  55266-4 0  9997,2 54101  53.2184  37.8818 0001495 108.2140 251.9015 15.08841255 76056,6917.877,95.437,540.776,538.707,0.0
54101.0,STARLINK-5204,PAYLOAD,2024-02-29 14:52:42,15.08837758,0.0001428,53.2176,36.6933,102.4487,257.6665,6.6645e-06,-1.82e-06,0.0,0 STARLINK-5204,1 54101U 22136BC  24060.61993911 -.00000182  00000-0  66645-5 0  9990,2 54101  53.2176  36.6933 0001428 102.4487 257.6665 15.08837758 75627,6917.887,95.438,540.74,538.764,0.0
